satname,norad_id,inclination_deg,eccentricity,mean_motion_rev_per_day,perigee_km,apogee_km,l1,l2
STARLINK-1008,44714,53.154,0.0001649,15.46625391,425.4842632874188,427.72846764935,1 44714U 19074B   26130.73340473  .00012383  00000+0  25266-3 0  9994,2 44714  53.1540 247.4564 0001649  18.2035 341.9032 15.46625391358416
STARLINK-1012,44718,53.158,0.0001206,15.46803829,425.26244012335155,426.9036179943614,1 44718U 19074F   26130.80008782  .00012832  00000+0  25990-3 0  9993,2 44718  53.1580 247.4564 0001206   9.0975 351.0055 15.46803829358415
STARLINK-1017,44723,53.0478,0.0003685,15.29483662,474.82851159220536,479.8810090195502,1 44723U 19074L   26130.72643465  .00032560  00000+0  11311-2 0  9994,2 44723  53.0478 244.0290 0003685 298.6002  61.4626 15.29483662358444
STARLINK-1019,44724,53.0241,0.0009963,16.21427214,209.1102689894442,222.24910812306098,1 44724U 19074M   26131.03238564  .01251155  11869-4  55822-3 0  9990,2 44724  53.0241 176.9255 0009963 357.5928   2.5061 16.21427214359392
STARLINK-1020,44725,53.159,0.0001404,15.50812141,413.3999396697409,415.30727103172376,1 44725U 19074N   26130.65182377  .00058798  00000+0  10027-2 0  9992,2 44725  53.1590 273.1925 0001404 357.7706   2.3297 15.50812141358029
STARLINK-1036,44741,53.0428,0.0002181,15.66490792,367.4831233084624,370.4262046923004,1 44741U 19074AE  26130.67585148  .00036792  00000+0  35012-3 0  9997,2 44741  53.0428 245.6717 0002181 242.4073 117.6720 15.66490792358414
STARLINK-1039,44744,53.0625,7.15e-05,15.26774197,484.9722738646378,485.95376866767947,1 44744U 19074AH  26130.70608311  .00029644  00000+0  11200-2 0  9992,2 44744  53.0625 288.9365 0000715 328.9577  31.1379 15.26774197357818
STARLINK-1042,44747,53.0416,0.0002919,15.52852426,406.42156461842205,410.38354641093156,1 44747U 19074AL  26130.43095552  .00013307  00000+0  21789-3 0  9995,2 44747  53.0416 157.8326 0002919  24.4790 335.6357 15.52852426359656
STARLINK-1043,44748,53.0494,0.0001559,15.58043742,392.2635840671528,394.37492412718075,1 44748U 19074AM  26130.77668245  .00026553  00000+0  35281-3 0  9997,2 44748  53.0494 253.9779 0001559 290.5570  69.5274 15.58043742358316
STARLINK-1046,44751,53.0501,0.000487,15.51796548,408.17414091673436,414.7872285416597,1 44751U 19074AQ  26130.80499858  .00056223  00000+0  92596-3 0  9996,2 44751  53.0501 273.9290 0004870 341.4779  18.6052 15.51796548358035
STARLINK-1047,44752,53.0689,0.000355,15.3391571,461.71402143331034,466.5720402552097,1 44752U 19074AR  26130.55002786  .00004874  00000+0  15765-3 0  9997,2 44752  53.0689 216.7088 0003550  63.3722 296.7642 15.33915710358831
STARLINK-1048,44753,53.0452,0.0005489,15.64691371,370.42020038396095,377.83283527383355,1 44753U 19074AS  26130.57230532  .00030580  00000+0  31364-3 0  9998,2 44753  53.0452 227.8038 0005489 323.9375  36.1268 15.64691371358658
STARLINK-1063,44768,53.1571,5.76e-05,15.46571307,426.37304461589156,427.1569693270949,1 44768U 19074BH  26130.81006024  .00028487  00000+0  56998-3 0  9991,2 44768  53.1571 288.0987 0000576  71.9655 288.1415 15.46571307357863
STARLINK-1067,44771,53.0436,0.0005198,15.70864215,352.9252256855416,359.9264772259139,1 44771U 19074BL  26130.75221355  .00058654  00000+0  46251-3 0  9994,2 44771  53.0436 260.1496 0005198 277.1294  82.9131 15.70864215358222
STARLINK-1068,44772,53.0436,0.0001719,15.71719935,352.8239649788229,355.138467221519,1 44772U 19074BM  26130.77055167  .00047587  00000+0  36357-3 0  9992,2 44772  53.0436 233.8675 0001719  67.8418 292.2781 15.71719935358581
STARLINK-1114,44927,53.0433,0.0002128,15.61136861,382.9329336962337,385.8110575247647,1 44927U 20001P   26130.86193854  .00067928  00000+0  78934-3 0  9990,2 44927  53.0433  28.3977 0002128  46.7748 313.3442 15.61136861349779
STARLINK-1123,44930,53.1457,0.0002512,15.5402197,403.2932095270917,406.7010561154211,1 44930U 20001S   26130.83092622  .00053632  00000+0  81612-3 0  9996,2 44930  53.1457  53.6943 0002512 152.6239 207.4905 15.54021970349428
STARLINK-1094,44941,53.1551,0.0001977,15.50699327,413.3400984511427,416.0259794945523,1 44941U 20001AD  26130.85861749  .00050014  00000+0  85841-3 0  9993,2 44941  53.1551  27.8821 0001977 168.8944 191.2109 15.50699327349798
STARLINK-1122,44949,53.1574,0.0001583,15.50572961,413.97673204561215,416.12745571273445,1 44949U 20001AM  26130.86448317  .00048088  00000+0  82957-3 0  9997,2 44949  53.1574  28.3967 0001583 173.9700 186.1329 15.50572961349788
STARLINK-1080,44961,53.0488,0.0001186,15.57671995,393.59335231776913,395.19979728171074,1 44961U 20001AZ  26130.86474199  .00068335  00000+0  90550-3 0  9993,2 44961  53.0488 348.6926 0001186 258.2187 101.8691 15.57671995350336
STARLINK-1090,44968,53.1517,0.0001448,15.47122885,424.16241274351523,426.1326439429231,1 44968U 20001BG  26130.85147723  .00019246  00000+0  38104-3 0  9993,2 44968  53.1517  15.4857 0001448 140.3271 219.7843 15.47122885349968
STARLINK-1132,45044,53.1548,0.0001363,15.51895183,410.2676073556804,412.1183787117825,1 45044U 20006A   26130.78737962  .00060254  00000+0  98824-3 0  9996,2 45044  53.1548 317.8273 0001363 123.7062 236.4078 15.51895183346548
STARLINK-1131,45047,53.1602,0.0001162,15.48874469,419.2275042723413,420.8073953664789,1 45047U 20006D   26130.87388551  .00053322  00000+0  97497-3 0  9998,2 45047  53.1602 349.5988 0001162 200.0577 160.0386 15.48874469346100
STARLINK-1134,45048,53.0286,0.0004364,15.52463926,406.57257743492755,412.4968573098495,1 45048U 20006E   26130.80850324  .00070933  00000+0  11366-2 0  9991,2 45048  53.0286 301.0921 0004364 357.5875   2.5111 15.52463926346769
STARLINK-1156,45054,53.1598,0.0001542,15.32758296,466.5314745595133,468.64269586739374,1 45054U 20006L   26130.84614328  .00032204  00000+0  10111-2 0  9990,2 45054  53.1598 352.0027 0001542 204.0788 156.0142 15.32758296346067
STARLINK-1166,45060,53.0482,0.0001133,15.55159544,400.9207400280866,402.4570485757358,1 45060U 20006S   26130.85187009  .00063371  00000+0  92268-3 0  9992,2 45060  53.0482 334.2661 0001133 195.7283 164.3692 15.55159544346308
STARLINK-1169,45061,53.1583,0.0003488,15.35765362,456.2634328137974,461.03277410197006,1 45061U 20006T   26130.87204861  .00040801  00000+0  11605-2 0  9999,2 45061  53.1583 351.0910 0003488 180.5457 179.5543 15.35765362346083
STARLINK-1171,45062,53.0432,0.0002405,15.70886211,354.7433378734586,357.982632366301,1 45062U 20006U   26130.75704791  .00046398  00000+0  36724-3 0  9991,2 45062  53.0432 303.7906 0002405 180.5004 179.6011 15.70886211346729
STARLINK-1133,45064,53.1601,0.0001404,15.32846154,466.3643959605406,468.2866018302311,1 45064U 20006W   26130.81751654  .00036032  00000+0  11262-2 0  9993,2 45064  53.1601 328.9216 0001404 237.8724 122.2142 15.32846154346398
STARLINK-1167,45071,53.1583,0.0002324,15.34979525,459.3919006310025,462.57072282229274,1 45071U 20006AD  26130.86141017  .00032646  00000+0  95539-3 0  9999,2 45071  53.1583 328.2359 0002324 169.9322 190.1727 15.34979525346403
STARLINK-1168,45072,53.1601,0.0001387,15.32895288,466.229774028433,468.1286647476918,1 45072U 20006AE  26130.86431644  .00039291  00000+0  12247-2 0  9995,2 45072  53.1601 328.9195 0001387 244.0996 115.9863 15.32895288346395
STARLINK-1172,45074,53.1566,0.0002846,15.35965097,456.1098122083986,460.0009729182466,1 45074U 20006AG  26130.77237738  .00035460  00000+0  10043-2 0  9991,2 45074  53.1566 328.1937 0002846 181.7397 178.3597 15.35965097346392
STARLINK-1153,45080,53.1598,0.0003279,15.35008027,458.6541332504348,463.1391715196696,1 45080U 20006AN  26130.84542257  .00039541  00000+0  11527-2 0  9993,2 45080  53.1598 328.2280 0003279 193.6871 166.4043 15.35008027346403
STARLINK-1151,45081,53.0512,0.0002504,15.73817884,346.31291116745797,349.68135914234335,1 45081U 20006AP  26130.71984000  .00056577  00000+0  39416-3 0  9992,2 45081  53.0512 293.3223 0002504 210.8033 149.2838 15.73817884346862
STARLINK-1185,45087,53.1618,0.0002219,15.43061221,435.56845756107396,438.59305120046884,1 45087U 20006AV  26130.81237904  .00047790  00000+0  10681-2 0  9992,2 45087  53.1618 310.1474 0002219 261.9807  98.0948 15.43061221346654
STARLINK-1183,45088,53.161,0.0001328,15.32741527,466.72789688574176,468.5461344643054,1 45088U 20006AW  26130.77540190  .00033510  00000+0  10520-2 0  9999,2 45088  53.1610 313.9128 0001328 258.3544 101.7309 15.32741527346590
STARLINK-1152,45096,53.0353,0.0001936,15.45800051,427.7104273868281,430.34616178889337,1 45096U 20006BE  26130.80955177  .00049763  00000+0  10129-2 0  9999,2 45096  53.0353 271.7838 0001936   8.9765 351.1275 15.45800051347170
STARLINK-1184,45098,53.0536,0.0002292,15.1315661,524.9980537518113,528.1631763065407,1 45098U 20006BG  26130.81042241  .00016502  00000+0  93456-3 0  9991,2 45098  53.0536 324.2137 0002292 333.4306  26.6568 15.13156610346431
STARLINK-1193,45100,53.0487,0.000394,15.65284288,369.7615550776618,375.08099499839136,1 45100U 20006BJ  26130.69984295  .00034560  00000+0  34546-3 0  9994,2 45100  53.0487 288.0368 0003940 209.2340 150.8455 15.65284288346932
STARLINK-1143,45179,53.0392,4.07e-05,15.79806222,330.71614230468094,331.26226517766463,1 45179U 20012B   26130.83335647  .00032722  00000+0  17707-3 0  9992,2 45179  53.0392  22.1899 0000407 113.7173 153.9965 15.79806222  5336
STARLINK-1202,45183,53.156,0.0003406,15.32416366,466.2733769365341,470.9373778440113,1 45183U 20012F   26130.32517617  .00029184  00000+0  92748-3 0  9996,2 45183  53.1560 112.7285 0003406  69.1258 291.0108 15.32416366344394
STARLINK-1216,45185,53.1559,0.0003141,15.32795533,465.3260064943297,469.6264207151162,1 45185U 20012H   26130.63555169  .00032781  00000+0  10277-2 0  9999,2 45185  53.1559 111.1955 0003141  73.3752 286.7595 15.32795533344389
STARLINK-1225,45187,53.1561,0.0002699,15.32724774,465.8392115345623,469.5345872754606,1 45187U 20012K   26130.37241295  .00035489  00000+0  11137-2 0  9998,2 45187  53.1561 112.8745 0002699  68.4257 291.7032 15.32724774344382
